NORAD_CAT_ID,OBJECT_NAME,OBJECT_TYPE,EPOCH,MEAN_MOTION,ECCENTRICITY,INCLINATION,RA_OF_ASC_NODE,ARG_OF_PERICENTER,MEAN_ANOMALY,BSTAR,MEAN_MOTION_DOT,MEAN_MOTION_DDOT,TLE_LINE0,TLE_LINE1,TLE_LINE2,SEMIMAJOR_AXIS,PERIOD,APOGEE,PERIGEE,DECAYED
52621.0,STARLINK-3984,PAYLOAD,2024-01-05 20:19:19,15.08834096,0.0001445,53.2156,232.8229,92.2025,267.9132,9.7818e-05,1.269e-05,0.0,0 STARLINK-3984,1 52621U 22052Z   24005.84675096  .00001269  00000-0  97818-4 0  9998,2 52621  53.2156 232.8229 0001445  92.2025 267.9132 15.08834096 91523,6917.898,95.438,540.763,538.764,0.0
52621.0,STARLINK-3984,PAYLOAD,2024-01-05 21:54:42,15.08834948,0.0001452,53.2157,232.5255,92.8059,267.3099,0.00010305,1.352e-05,0.0,0 STARLINK-3984,1 52621U 22052Z   24005.91299045  .00001352  00000-0  10305-3 0  9990,2 52621  53.2157 232.5255 0001452  92.8059 267.3099 15.08834948 91152,6917.896,95.438,540.765,538.756,0.0
52621.0,STARLINK-3984,PAYLOAD,2024-01-06 21:45:29,15.08838798,0.0001501,53.2158,228.0633,98.0833,262.033,5.1601e-05,5.33e-06,0.0,0 STARLINK-3984,1 52621U 22052Z   24006.90659031  .00000533  00000-0  51601-4 0  9990,2 52621  53.2158 228.0633 0001501  98.0833 262.0330 15.08838798 91300,6917.884,95.438,540.787,538.711,0.0
52621.0,STARLINK-3984,PAYLOAD,2024-01-07 20:00:53,15.08834699,0.0001436,53.2157,223.9,95.8094,264.3062,5.6532e-05,6.12e-06,0.0,0 STARLINK-3984,1 52621U 22052Z   24007.83395626  .00000612  00000-0  56532-4 0  9996,2 52621  53.2157 223.9000 0001436  95.8094 264.3062 15.08834699 91822,6917.897,95.438,540.755,538.768,0.0
52621.0,STARLINK-3984,PAYLOAD,2024-01-07 21:36:16,15.08834792,0.0001424,53.2157,223.6027,92.7564,267.3591,5.3257e-05,5.6e-06,0.0,0 STARLINK-3984,1 52621U 22052Z   24007.90019623  .00000560  00000-0  53257-4 0  9997,2 52621  53.2157 223.6027 0001424  92.7564 267.3591 15.08834792 91456,6917.896,95.438,540.746,538.776,0.0
52621.0,STARLINK-3984,PAYLOAD,2024-01-08 00:47:03,15.08834814,0.0001419,53.2156,223.0078,91.6062,268.5093,4.8273e-05,4.8e-06,0.0,0 STARLINK-3984,1 52621U 22052Z   24008.03267665  .00000480  00000-0  48273-4 0  9996,2 52621  53.2156 223.0078 0001419  91.6062 268.5093 15.08834814 91477,6917.896,95.438,540.743,538.78,0.0
52621.0,STARLINK-3984,PAYLOAD,2024-01-08 19:51:40,15.0884327,0.0001393,53.2154,219.4397,89.6712,270.444,0.00010879,1.444e-05,0.0,0 STARLINK-3984,1 52621U 22052Z   24008.82755094  .00001444  00000-0  10879-3 0  9992,2 52621  53.2154 219.4397 0001393  89.6712 270.4440 15.08843270 91977,6917.87,95.437,540.699,538.772,0.0
52621.0,STARLINK-3984,PAYLOAD,2024-01-08 21:27:03,15.08844055,0.0001391,53.2154,219.1423,87.9769,272.1383,0.00011394,1.526e-05,0.0,0 STARLINK-3984,1 52621U 22052Z   24008.89379040  .00001526  00000-0  11394-3 0  9996,2 52621  53.2154 219.1423 0001391  87.9769 272.1383 15.08844055 91602,6917.868,95.437,540.695,538.771,0.0
52621.0,STARLINK-3984,PAYLOAD,2024-01-09 19:42:27,15.08839633,0.0001386,53.215,214.9795,81.1288,278.9861,8.6813e-05,1.094e-05,0.0,0 STARLINK-3984,1 52621U 22052Z   24009.82115550  .00001094  00000-0  86813-4 0  9993,2 52621  53.2150 214.9795 0001386  81.1288 278.9861 15.08839633 92128,6917.882,95.438,540.705,538.788,0.0
52621.0,STARLINK-3984,PAYLOAD,2024-01-09 21:17:50,15.08840204,0.000144,53.2154,214.6822,79.2247,280.8907,9.1152e-05,1.163e-05,0.0,0 STARLINK-3984,1 52621U 22052Z   24009.88739518  .00001163  00000-0  91152-4 0  9994,2 52621  53.2154 214.6822 0001440  79.2247 280.8907 15.08840204 91751,6917.88,95.438,540.741,538.749,0.0
52621.0,STARLINK-3984,PAYLOAD,2024-01-09 22:53:13,15.08841329,0.0001431,53.2153,214.3847,79.7678,280.3476,9.8951e-05,1.287e-05,0.0,0 STARLINK-3984,1 52621U 22052Z   24009.95363421  .00001287  00000-0  98951-4 0  9999,2 52621  53.2153 214.3847 0001431  79.7678 280.3476 15.08841329 91763,6917.876,95.437,540.731,538.751,0.0
52621.0,STARLINK-3984,PAYLOAD,2024-01-11 13:02:25,15.08874097,0.0001279,53.2156,207.2473,85.2266,274.8872,0.00030461,4.568e-05,0.0,0 STARLINK-3984,1 52621U 22052Z   24011.54335634  .00004568  00000-0  30461-3 0  9998,2 52621  53.2156 207.2473 0001279  85.2266 274.8872 15.08874097 92001,6917.776,95.435,540.526,538.756,0.0
52621.0,STARLINK-3984,PAYLOAD,2024-01-11 19:24:00,15.08843129,0.0001204,53.2155,206.0588,97.4383,262.6745,2.4589e-05,1.04e-06,0.0,0 STARLINK-3984,1 52621U 22052Z   24011.80834048  .00000104  00000-0  24589-4 0  9997,2 52621  53.2155 206.0588 0001204  97.4383 262.6745 15.08843129 92429,6917.871,95.437,540.569,538.903,0.0
52621.0,STARLINK-3984,PAYLOAD,2024-01-11 22:34:47,15.08840604,0.00012,53.2152,205.463,88.656,271.4569,7.0662e-06,-1.75e-06,0.0,0 STARLINK-3984,1 52621U 22052Z   24011.94082247 -.00000175  00000-0  70662-5 0  9991,2 52621  53.2152 205.4630 0001200  88.6560 271.4569 15.08840604 92069,6917.879,95.438,540.574,538.913,0.0
52621.0,STARLINK-3984,PAYLOAD,2024-01-12 19:14:48,15.08838628,0.0001222,53.2164,201.5947,104.0359,256.0769,-6.1578e-05,-1.268e-05,0.0,0 STARLINK-3984,1 52621U 22052Z   24012.80194512 -.00001268  00000-0 -61578-4 0  9996,2 52621  53.2164 201.5947 0001222 104.0359 256.0769 15.08838628 92573,6917.885,95.438,540.595,538.904,0.0
52621.0,STARLINK-3984,PAYLOAD,2024-01-13 12:44:02,15.0885337,0.0001116,53.2162,198.3241,97.0177,263.0942,-0.00040932,-6.799e-05,0.0,0 STARLINK-3984,1 52621U 22052Z   24013.53058397 -.00006799  00000-0 -40932-3 0  9991,2 52621  53.2162 198.3241 0001116  97.0177 263.0942 15.08853370 92305,6917.84,95.437,540.477,538.932,0.0
52621.0,STARLINK-3984,PAYLOAD,2024-01-14 12:34:50,15.08825311,0.0001258,53.2164,193.8651,100.5022,259.6112,0.00010533,1.388e-05,0.0,0 STARLINK-3984,1 52621U 22052Z   24014.52419549  .00001388  00000-0  10533-3 0  9992,2 52621  53.2164 193.8651 0001258 100.5022 259.6112 15.08825311 92830,6917.925,95.438,540.661,538.92,0.0
52621.0,STARLINK-3984,PAYLOAD,2024-01-14 17:20:59,15.08828253,0.0001246,53.2164,192.9731,97.3209,262.7925,0.00012807,1.75e-05,0.0,0 STARLINK-3984,1 52621U 22052Z   24014.72291570  .00001750  00000-0  12807-3 0  9995,2 52621  53.2164 192.9731 0001246  97.3209 262.7925 15.08828253 92482,6917.916,95.438,540.643,538.919,0.0
52621.0,STARLINK-3984,PAYLOAD,2024-01-15 10:50:14,15.08832703,0.0001117,53.2156,189.6995,83.0678,277.0441,0.00015585,2.193e-05,0.0,0 STARLINK-3984,1 52621U 22052Z   24015.45155896  .00002193  00000-0  15585-3 0  9994,2 52621  53.2156 189.6995 0001117  83.0678 277.0441 15.08832703 92596,6917.903,95.438,540.54,538.995,0.0
52621.0,STARLINK-3984,PAYLOAD,2024-01-15 18:47:10,15.08839884,0.0001164,53.2153,188.2152,83.6806,276.4318,0.00022333,3.268e-05,0.0,0 STARLINK-3984,1 52621U 22052Z   24015.78275681  .00003268  00000-0  22333-3 0  9998,2 52621  53.2153 188.2152 0001164  83.6806 276.4318 15.08839884 93026,6917.881,95.438,540.551,538.941,0.0
52621.0,STARLINK-3984,PAYLOAD,2024-01-16 12:16:24,15.08837908,0.000118,53.2157,184.9449,82.1646,277.9481,7.8365e-05,9.59e-06,0.0,0 STARLINK-3984,1 52621U 22052Z   24016.51139983  .00000959  00000-0  78365-4 0  9995,2 52621  53.2157 184.9449 0001180  82.1646 277.9481 15.08837908 92757,6917.887,95.438,540.568,538.935,0.0
52621.0,STARLINK-3984,PAYLOAD,2024-01-16 18:37:57,15.08840954,0.0001213,53.2159,183.7555,82.1033,278.0097,0.00011304,1.512e-05,0.0,0 STARLINK-3984,1 52621U 22052Z   24016.77635865  .00001512  00000-0  11304-3 0  9998,2 52621  53.2159 183.7555 0001213  82.1033 278.0097 15.08840954 92795,6917.877,95.437,540.582,538.903,0.0
52621.0,STARLINK-3984,PAYLOAD,2024-01-17 18:28:44,15.08844019,0.0001409,53.2172,179.2956,74.2759,285.8389,9.0711e-05,1.156e-05,0.0,0 STARLINK-3984,1 52621U 22052Z   24017.76995984  .00001156  00000-0  90711-4 0  9993,2 52621  53.2172 179.2956 0001409  74.2759 285.8389 15.08844019 92942,6917.868,95.437,540.708,538.758,0.0
52621.0,STARLINK-3984,PAYLOAD,2024-01-18 10:22:36,15.0884037,0.0001367,53.2172,176.3218,79.28,280.8346,7.6252e-05,9.26e-06,0.0,0 STARLINK-3984,1 52621U 22052Z   24018.43236233  .00000926  00000-0  76252-4 0  9991,2 52621  53.2172 176.3218 0001367  79.2800 280.8346 15.08840370 93424,6917.879,95.438,540.69,538.799,0.0
52621.0,STARLINK-3984,PAYLOAD,2024-01-18 16:44:08,15.08843787,0.0001415,53.2172,175.1327,77.733,282.382,9.995e-05,1.303e-05,0.0,0 STARLINK-3984,1 52621U 22052Z   24018.69731950  .00001303  00000-0  99950-4 0  9995,2 52621  53.2172 175.1327 0001415  77.7330 282.3820 15.08843787 93088,6917.869,95.437,540.713,538.755,0.0
52621.0,STARLINK-3984,PAYLOAD,2024-01-19 14:59:32,15.08844092,0.0001345,53.2166,170.971,82.1084,278.0061,8.0516e-05,9.94e-06,0.0,0 STARLINK-3984,1 52621U 22052Z   24019.62467834  .00000994  00000-0  80516-4 0  9999,2 52621  53.2166 170.9710 0001345  82.1084 278.0061 15.08844092 93223,6917.868,95.437,540.663,538.802,0.0
52621.0,STARLINK-3984,PAYLOAD,2024-01-19 16:34:55,15.08844786,0.0001379,53.2166,170.6738,79.0855,281.0292,8.3703e-05,1.045e-05,0.0,0 STARLINK-3984,1 52621U 22052Z   24019.69091778  .00001045  00000-0  83703-4 0  9995,2 52621  53.2166 170.6738 0001379  79.0855 281.0292 15.08844786 93611,6917.866,95.437,540.685,538.777,0.0
52621.0,STARLINK-3984,PAYLOAD,2024-01-20 14:50:19,15.08837115,0.000144,53.2174,166.5111,86.558,273.5577,2.8383e-05,1.64e-06,0.0,0 STARLINK-3984,1 52621U 22052Z   24020.61828414  .00000164  00000-0  28383-4 0  9998,2 52621  53.2174 166.5111 0001440  86.5580 273.5577 15.08837115 93379,6917.889,95.438,540.75,538.758,0.0
52621.0,STARLINK-3984,PAYLOAD,2024-01-20 19:36:28,15.08841977,0.0001465,53.2162,165.6156,96.6784,263.4374,3.2056e-05,2.22e-06,0.0,0 STARLINK-3984,1 52621U 22052Z   24020.81699995  .00000222  00000-0  32056-4 0  9997,2 52621  53.2162 165.6156 0001465  96.6784 263.4374 15.08841977 93789,6917.874,95.437,540.753,538.726,0.0
52621.0,STARLINK-3984,PAYLOAD,2024-01-21 19:27:15,15.08848808,0.0001534,53.2174,161.1517,105.5267,254.5895,5.1721e-05,5.35e-06,0.0,0 STARLINK-3984,1 52621U 22052Z   24021.81059526  .00000535  00000-0  51721-4 0  9995,2 52621  53.2174 161.1517 0001534 105.5267 254.5895 15.08848808 93551,6917.853,95.437,540.78,538.657,0.0
